     3.04           N: GNSS NAV DATA    M: Mixed            RINEX VERSION / TYPE
CONVBIN 2.4.3                           20251030 063423 UTC PGM / RUN BY / DATE 
format: u-blox UBX                                          COMMENT             
log: D:\GPdata\10_30\fingure_290_10_30_2.ubx                COMMENT             
                                                            END OF HEADER       
G26 2025 10 30 08 00 00 -.274061225355D-03 -.420641299570D-11  .000000000000D+00
      .230000000000D+02  .349687500000D+02  .537093800684D-08  .856092234215D+00
      .197812914848D-05  .106305985246D-01  .733882188797D-05  .515365143585D+04
      .374400000000D+06 -.128522515297D-06  .312649865984D+01  .102445483208D-06
      .929023705109D+00  .221468750000D+03  .668776904465D+00 -.851249743683D-08
      .610739725475D-10  .100000000000D+01  .239000000000D+04  .000000000000D+00
      .200000000000D+01  .000000000000D+00  .651925802231D-08  .230000000000D+02
      .368016000000D+06  .400000000000D+01
G31 2025 10 30 08 00 00 -.185326207429D-03  .181898940355D-11  .000000000000D+00
      .220000000000D+02 -.374687500000D+02  .451340228704D-08  .143276557191D+01
     -.187754631042D-05  .108977054479D-01  .107288360596D-04  .515374173546D+04
      .374400000000D+06 -.160187482834D-06  .219776591889D+01  .745058059692D-08
      .954390376910D+00  .176687500000D+03  .900168883624D+00 -.801997692137D-08
      .650027076237D-10  .100000000000D+01  .239000000000D+04  .000000000000D+00
      .200000000000D+01  .000000000000D+00 -.130385160446D-07  .220000000000D+02
      .368016000000D+06  .400000000000D+01
G28 2025 10 30 08 00 00 -.634732656181D-03  .193267624127D-11  .000000000000D+00
      .360000000000D+02 -.340312500000D+02  .437982529445D-08  .229463864980D+01
     -.178441405296D-05  .423583784141D-03  .104177743196D-04  .515371178246D+04
      .374400000000D+06  .558793544769D-07  .214691165633D+01  .428408384323D-07
      .961522677473D+00  .180906250000D+03  .536909483429D+00 -.787425656582D-08
      .126433837905D-09  .100000000000D+01  .239000000000D+04  .000000000000D+00
      .200000000000D+01  .000000000000D+00 -.931322574615D-08  .804000000000D+03
      .368016000000D+06  .400000000000D+01
G32 2025 10 30 08 00 00 -.268562696874D-03  .148929757415D-10  .000000000000D+00
      .250000000000D+02 -.873437500000D+02  .459376277723D-08 -.257297342747D+00
     -.448524951935D-05  .880403688643D-02  .633858144283D-05  .515367865372D+04
      .374400000000D+06 -.931322574615D-08  .111731402148D+01  .117346644402D-06
      .966245056031D+00  .261000000000D+03 -.205912320197D+01 -.834106172442D-08
     -.177864551630D-09  .100000000000D+01  .239000000000D+04  .000000000000D+00
      .200000000000D+01  .000000000000D+00  .931322574615D-09  .250000000000D+02
      .368016000000D+06  .400000000000D+01
G16 2025 10 30 08 00 00  .135947950184D-03  .807176547823D-11  .000000000000D+00
      .780000000000D+02  .319687500000D+02  .474698344520D-08 -.265712824349D-01
      .184215605259D-05  .147297063377D-01  .695511698723D-05  .515358295059D+04
      .374400000000D+06 -.186264514923D-07 -.297495388174D+01  .238418579102D-06
      .959190881145D+00  .245687500000D+03  .903360812878D+00 -.832856120372D-08
      .132505519387D-09  .100000000000D+01  .239000000000D+04  .000000000000D+00
      .200000000000D+01  .000000000000D+00 -.107102096081D-07  .780000000000D+02
      .368016000000D+06  .400000000000D+01
G29 2025 10 30 08 00 00 -.433149281889D-03  .579802872380D-11  .000000000000D+00
      .660000000000D+02  .253750000000D+02  .452625996547D-08 -.109083084329D+01
      .103004276752D-05  .328855682164D-02  .740215182304D-05  .515357332230D+04
      .374400000000D+06  .447034835815D-07 -.194027037561D+01 -.279396772385D-07
      .963564426886D+00  .238218750000D+03  .279100808096D+01 -.806033574534D-08
     -.200365488884D-09  .100000000000D+01  .239000000000D+04  .000000000000D+00
      .200000000000D+01  .000000000000D+00 -.977888703346D-08  .660000000000D+02
      .368016000000D+06  .400000000000D+01
G03 2025 10 30 08 00 00  .653707887977D-03 -.648014975013D-11  .000000000000D+00
      .100000000000D+02  .142500000000D+02  .396373653411D-08  .193977662028D+01
      .532716512680D-06  .633002433460D-02  .474788248539D-05  .515368956947D+04
      .374400000000D+06 -.465661287308D-07  .920507802959D-01 -.104308128357D-06
      .992036565093D+00  .301687500000D+03  .123187961865D+01 -.786425614926D-08
      .119290683221D-09  .100000000000D+01  .239000000000D+04  .000000000000D+00
      .200000000000D+01  .000000000000D+00  .139698386192D-08  .100000000000D+02
      .368016000000D+06  .400000000000D+01
G04 2025 10 30 08 00 00  .201584771276D-04  .306954461848D-11  .000000000000D+00
      .200000000000D+03 -.806875000000D+02  .431946563737D-08 -.116266172580D+01
     -.427663326263D-05  .361165008508D-02  .645779073238D-05  .515376968575D+04
      .374400000000D+06  .484287738800D-07  .116412056965D+01 -.145286321640D-06
      .969046731406D+00  .260343750000D+03 -.296835484115D+01 -.797283210046D-08
     -.143220251413D-09  .100000000000D+01  .239000000000D+04  .000000000000D+00
      .200000000000D+01  .000000000000D+00 -.465661287308D-08  .968000000000D+03
      .368016000000D+06  .400000000000D+01
